ONEWEB-0520             
1 54138U 22138AB  25126.22111136  .00000084  00000+0  17810-3 0  9991
2 54138  87.9252  25.8488 0001508  73.5096 286.6202 13.19726309124010
ONEWEB-0521             
1 54139U 22138AC  25125.95100756  .00000023  00000+0  24797-4 0  9993
2 54139  87.9251  25.8906 0002107  78.3935 281.7434 13.19726671123054
ONEWEB-0522             
1 54140U 22138AD  25125.62720445 -.00000044  00000+0 -14333-3 0  9991
2 54140  87.9249  25.9561 0001736  80.0346 280.0982 13.19728524123053
ONEWEB-0523             
1 54141U 22138AE  25126.14076310  .00000070  00000+0  14026-3 0  9991
2 54141  87.9295 355.4952 0002580  95.2821 264.8607 13.20772641126445
ONEWEB-0524             
1 54142U 22138AF  25125.90244261  .00000079  00000+0  16224-3 0  9998
2 54142  87.9297 355.5444 0001883 113.1407 246.9925 13.20772676125542
ONEWEB-0525             
1 54143U 22138AG  25125.94942671  .00000054  00000+0  10356-3 0  9996
2 54143  87.9255  25.9099 0001601  72.9666 287.1642 13.19727732123113
ONEWEB-0526             
1 54144U 22138AH  25126.21005506  .00000102  00000+0  22296-3 0  9995
2 54144  87.9251  25.8475 0001777  79.0112 281.1220 13.19726583123990
ONEWEB-0529             
1 54145U 22138AJ  25126.21322067  .00000095  00000+0  20497-3 0  9992
2 54145  87.9259  25.8854 0001629  75.2047 284.9267 13.19726197124018
